CTC1_L_00079001-01
1 30183U 22409J   26070.40832176  .00000000  00000+0  00000-0 0  9997
2 30183  90.0000   0.0000 0000000   0.0000   0.0000 14.89338871    19
CTC1_L_00079001-02
1 30184U 26761QU  26070.40832176  .00000000  00000+0  00000-0 0  9993
2 30184  90.0000   0.0000 0000000   0.0000  90.0000 14.89338871    19
CTC1_L_00079001-03
1 30185U 26111AM  26070.40832176  .00000000  00000+0  00000-0 0  9993
2 30185  90.0000   0.0000 0000000   0.0000 180.0000 14.89338871    10
CTC1_L_00079001-04
1 30186U 24215TC  26070.40832176  .00000000  00000+0  00000-0 0  9997
2 30186  90.0000   0.0000 0000000   0.0000 270.0000 14.89338871    11
CTC1_L_00079002-01
1 30187U 22221SC  26070.40832176  .00000000  00000+0  00000-0 0  9993
2 30187  90.0000  12.0000 0000000   0.0000  12.0000 14.89338871    19
CTC1_L_00079002-02
1 30188U 23503GW  26070.40832176  .00000000  00000+0  00000-0 0  9998
2 30188  90.0000  12.0000 0000000   0.0000 102.0000 14.89338871    10
CTC1_L_00079002-03
1 30189U 26595PS  26070.40832176  .00000000  00000+0  00000-0 0  9993
2 30189  90.0000  12.0000 0000000   0.0000 192.0000 14.89338871    10
CTC1_L_00079002-04
1 30190U 23939MO  26070.40832176  .00000000  00000+0  00000-0 0  9994
2 30190  90.0000  12.0000 0000000   0.0000 282.0000 14.89338871    12
CTC1_L_00079003-01
1 30191U 22015NE  26070.40832176  .00000000  00000+0  00000-0 0  9999
2 30191  90.0000  24.0000 0000000   0.0000  24.0000 14.89338871    10
CTC1_L_00079003-02
1 30192U 24532RI  26070.40832176  .00000000  00000+0  00000-0 0  9996
2 30192  90.0000  24.0000 0000000   0.0000 114.0000 14.89338871    11
CTC1_L_00079003-03
1 30193U 24235XU  26070.40832176  .00000000  00000+0  00000-0 0  9997
2 30193  90.0000  24.0000 0000000   0.0000 204.0000 14.89338871    12
CTC1_L_00079003-04
1 30194U 25534MV  26070.40832176  .00000000  00000+0  00000-0 0  9991
2 30194  90.0000  24.0000 0000000   0.0000 294.0000 14.89338871    12
CTC1_L_00079004-01
1 30195U 22464IX  26070.40832176  .00000000  00000+0  00000-0 0  9991
2 30195  90.0000  36.0000 0000000   0.0000  36.0000 14.89338871    10
CTC1_L_00079004-02
1 30196U 22701IX  26070.40832176  .00000000  00000+0  00000-0 0  9996
2 30196  90.0000  36.0000 0000000   0.0000 126.0000 14.89338871    11
CTC1_L_00079004-03
1 30197U 26423AZ  26070.40832176  .00000000  00000+0  00000-0 0  9992
2 30197  90.0000  36.0000 0000000   0.0000 216.0000 14.89338871    12
CTC1_L_00079004-04
1 30198U 26240DL  26070.40832176  .00000000  00000+0  00000-0 0  9990
2 30198  90.0000  36.0000 0000000   0.0000 306.0000 14.89338871    13
CTC1_L_00079005-01
1 30199U 26782SW  26070.40832176  .00000000  00000+0  00000-0 0  9992
2 30199  90.0000  48.0000 0000000   0.0000  48.0000 14.89338871    10
CTC1_L_00079005-02
1 30200U 25256VL  26070.40832176  .00000000  00000+0  00000-0 0  9990
2 30200  90.0000  48.0000 0000000   0.0000 138.0000 14.89338871    13
CTC1_L_00079005-03
1 30201U 25991OS  26070.40832176  .00000000  00000+0  00000-0 0  9997
2 30201  90.0000  48.0000 0000000   0.0000 228.0000 14.89338871    14
CTC1_L_00079005-04
1 30202U 22402VP  26070.40832176  .00000000  00000+0  00000-0 0  9992
2 30202  90.0000  48.0000 0000000   0.0000 318.0000 14.89338871    15
CTC1_L_00079006-01
1 30203U 25401SB  26070.40832176  .00000000  00000+0  00000-0 0  9995
2 30203  90.0000  60.0000 0000000   0.0000  60.0000 14.89338871    14
CTC1_L_00079006-02
1 30204U 24434AJ  26070.40832176  .00000000  00000+0  00000-0 0  9991
2 30204  90.0000  60.0000 0000000   0.0000 150.0000 14.89338871    15
CTC1_L_00079006-03
1 30205U 23310A   26070.40832176  .00000000  00000+0  00000-0 0  9994
2 30205  90.0000  60.0000 0000000   0.0000 240.0000 14.89338871    16
CTC1_L_00079006-04
1 30206U 26384HW  26070.40832176  .00000000  00000+0  00000-0 0  9999
2 30206  90.0000  60.0000 0000000   0.0000 330.0000 14.89338871    17
CTC1_L_00079007-01
1 30207U 23172XG  26070.40832176  .00000000  00000+0  00000-0 0  9992
2 30207  90.0000  72.0000 0000000   0.0000  72.0000 14.89338871    14
CTC1_L_00079007-02
1 30208U 23828VU  26070.40832176  .00000000  00000+0  00000-0 0  9991
2 30208  90.0000  72.0000 0000000   0.0000 162.0000 14.89338871    15
CTC1_L_00079007-03
1 30209U 23144LY  26070.40832176  .00000000  00000+0  00000-0 0  9993
2 30209  90.0000  72.0000 0000000   0.0000 252.0000 14.89338871    16
CTC1_L_00079007-04
1 30210U 23967YQ  26070.40832176  .00000000  00000+0  00000-0 0  9998
2 30210  90.0000  72.0000 0000000   0.0000 342.0000 14.89338871    18
CTC1_L_00079008-01
1 30211U 22620SI  26070.40832176  .00000000  00000+0  00000-0 0  9994
2 30211  90.0000  84.0000 0000000   0.0000  84.0000 14.89338871    15
CTC1_L_00079008-02
1 30212U 23960FH  26070.40832176  .00000000  00000+0  00000-0 0  9993
2 30212  90.0000  84.0000 0000000   0.0000 174.0000 14.89338871    16
CTC1_L_00079008-03
1 30213U 23056OK  26070.40832176  .00000000  00000+0  00000-0 0  9990
2 30213  90.0000  84.0000 0000000   0.0000 264.0000 14.89338871    17
CTC1_L_00079008-04
1 30214U 24753OB  26070.40832176  .00000000  00000+0  00000-0 0  9996
2 30214  90.0000  84.0000 0000000   0.0000 354.0000 14.89338871    18
CTC1_L_00079009-01
1 30215U 26287DG  26070.40832176  .00000000  00000+0  00000-0 0  9991
2 30215  90.0000  96.0000 0000000   0.0000  96.0000 14.89338871    15
CTC1_L_00079009-02
1 30216U 23529QD  26070.40832176  .00000000  00000+0  00000-0 0  9998
2 30216  90.0000  96.0000 0000000   0.0000 186.0000 14.89338871    16
CTC1_L_00079009-03
1 30217U 23634QC  26070.40832176  .00000000  00000+0  00000-0 0  9996
2 30217  90.0000  96.0000 0000000   0.0000 276.0000 14.89338871    17
CTC1_L_00079009-04
1 30218U 24334SI  26070.40832176  .00000000  00000+0  00000-0 0  9995
2 30218  90.0000  96.0000 0000000   0.0000   6.0000 14.89338871    19
CTC1_L_00079010-01
1 30219U 25335AI  26070.40832176  .00000000  00000+0  00000-0 0  9998
2 30219  90.0000 108.0000 0000000   0.0000 108.0000 14.89338871    17
CTC1_L_00079010-02
1 30220U 26502VK  26070.40832176  .00000000  00000+0  00000-0 0  9997
2 30220  90.0000 108.0000 0000000   0.0000 198.0000 14.89338871    18
CTC1_L_00079010-03
1 30221U 24526AX  26070.40832176  .00000000  00000+0  00000-0 0  9992
2 30221  90.0000 108.0000 0000000   0.0000 288.0000 14.89338871    19
CTC1_L_00079010-04
1 30222U 22242T   26070.40832176  .00000000  00000+0  00000-0 0  9996
2 30222  90.0000 108.0000 0000000   0.0000  18.0000 14.89338871    11
CTC1_L_00079011-01
1 30223U 25664IJ  26070.40832176  .00000000  00000+0  00000-0 0  9998
2 30223  90.0000 120.0000 0000000   0.0000 120.0000 14.89338871    10
CTC1_L_00079011-02
1 30224U 22212O   26070.40832176  .00000000  00000+0  00000-0 0  9995
2 30224  90.0000 120.0000 0000000   0.0000 210.0000 14.89338871    11
CTC1_L_00079011-03
1 30225U 23285JU  26070.40832176  .00000000  00000+0  00000-0 0  9997
2 30225  90.0000 120.0000 0000000   0.0000 300.0000 14.89338871    12
CTC1_L_00079011-04
1 30226U 22078DQ  26070.40832176  .00000000  00000+0  00000-0 0  9997
2 30226  90.0000 120.0000 0000000   0.0000  30.0000 14.89338871    13
CTC1_L_00079012-01
1 30227U 22696LN  26070.40832176  .00000000  00000+0  00000-0 0  9994
2 30227  90.0000 132.0000 0000000   0.0000 132.0000 14.89338871    10
CTC1_L_00079012-02
1 30228U 25524DH  26070.40832176  .00000000  00000+0  00000-0 0  9998
2 30228  90.0000 132.0000 0000000   0.0000 222.0000 14.89338871    11
CTC1_L_00079012-03
1 30229U 24462AR  26070.40832176  .00000000  00000+0  00000-0 0  9999
2 30229  90.0000 132.0000 0000000   0.0000 312.0000 14.89338871    12
CTC1_L_00079012-04
1 30230U 22760DU  26070.40832176  .00000000  00000+0  00000-0 0  9990
2 30230  90.0000 132.0000 0000000   0.0000  42.0000 14.89338871    14
CTC1_L_00079013-01
1 30231U 23157PK  26070.40832176  .00000000  00000+0  00000-0 0  9992
2 30231  90.0000 144.0000 0000000   0.0000 144.0000 14.89338871    11
CTC1_L_00079013-02
1 30232U 22884EA  26070.40832176  .00000000  00000+0  00000-0 0  9999
2 30232  90.0000 144.0000 0000000   0.0000 234.0000 14.89338871    12
CTC1_L_00079013-03
1 30233U 23528YW  26070.40832176  .00000000  00000+0  00000-0 0  9996
2 30233  90.0000 144.0000 0000000   0.0000 324.0000 14.89338871    13
CTC1_L_00079013-04
1 30234U 25606TE  26070.40832176  .00000000  00000+0  00000-0 0  9996
2 30234  90.0000 144.0000 0000000   0.0000  54.0000 14.89338871    14
CTC1_L_00079014-01
1 30235U 25952LU  26070.40832176  .00000000  00000+0  00000-0 0  9991
2 30235  90.0000 156.0000 0000000   0.0000 156.0000 14.89338871    11
CTC1_L_00079014-02
1 30236U 26190WD  26070.40832176  .00000000  00000+0  00000-0 0  9997
2 30236  90.0000 156.0000 0000000   0.0000 246.0000 14.89338871    12
CTC1_L_00079014-03
1 30237U 24235ON  26070.40832176  .00000000  00000+0  00000-0 0  9996
2 30237  90.0000 156.0000 0000000   0.0000 336.0000 14.89338871    13
CTC1_L_00079014-04
1 30238U 24417JX  26070.40832176  .00000000  00000+0  00000-0 0  9999
2 30238  90.0000 156.0000 0000000   0.0000  66.0000 14.89338871    14
CTC1_L_00079015-01
1 30239U 26030XT  26070.40832176  .00000000  00000+0  00000-0 0  9993
2 30239  90.0000 168.0000 0000000   0.0000 168.0000 14.89338871    11
CTC1_L_00079015-02
1 30240U 25282I   26070.40832176  .00000000  00000+0  00000-0 0  9993
2 30240  90.0000 168.0000 0000000   0.0000 258.0000 14.89338871    13
CTC1_L_00079015-03
1 30241U 24579KQ  26070.40832176  .00000000  00000+0  00000-0 0  9992
2 30241  90.0000 168.0000 0000000   0.0000 348.0000 14.89338871    14
CTC1_L_00079015-04
1 30242U 26943FL  26070.40832176  .00000000  00000+0  00000-0 0  9990
2 30242  90.0000 168.0000 0000000   0.0000  78.0000 14.89338871    15
CTC1_L_00079016-01
1 30243U 25366XI  26070.40832176  .00000000  00000+0  00000-0 0  9999
2 30243  90.0000 180.0000 0000000   0.0000 180.0000 14.89338871    14
CTC1_L_00079016-02
1 30244U 24660CH  26070.40832176  .00000000  00000+0  00000-0 0  9996
2 30244  90.0000 180.0000 0000000   0.0000 270.0000 14.89338871    15
